OBJECT_NAME,OBJECT_ID,EPOCH,MEAN_MOTION,ECCENTRICITY,INCLINATION,RA_OF_ASC_NODE,ARG_OF_PERICENTER,MEAN_ANOMALY,EPHEMERIS_TYPE,CLASSIFICATION_TYPE,NORAD_CAT_ID,ELEMENT_SET_NO,REV_AT_EPOCH,BSTAR,MEAN_MOTION_DOT,MEAN_MOTION_DDOT
SPACEMOBILE-004,2024-163E,2026-07-05T21:29:19.575744,15.20802887,.00071224,52.9649,222.8932,193.0409,167.0402,0,U,61049,999,10061,.71381053E-3,.15654E-3,0
CZ-8A R/B,2025-231K,2026-07-05T18:40:50.615040,14.30160421,.01165062,50.0052,320.2216,289.4572,69.3787,0,U,66004,999,3760,.75287348E-4,.48E-6,0
SZ-21 MODULE,2025-246C,2026-07-06T02:02:25.553472,15.78117906,.00060913,41.4706,189.4832,154.8325,205.2818,0,U,66515,999,3672,.29659172E-3,.52239E-3,0
SPACEMOBILE-006,2025-309A,2026-07-06T03:05:42.058464,15.18641469,.00107027,52.9956,244.8687,185.6932,174.3942,0,U,67232,999,2947,.92409227E-4,.1618E-4,0
SPACEMOBILE-008,2026-139A,2026-07-06T04:01:47.053344,15.12792935,.00046043,52.9938,176.3923,34.4337,325.6952,0,U,69589,999,285,.50838139E-4,.602E-5,0
SPACEMOBILE-009,2026-139B,2026-07-06T04:03:41.561856,15.12686326,.000482,52.9928,176.3963,29.5652,330.5611,0,U,69590,999,285,.5185962E-4,.617E-5,0
SPACEMOBILE-010,2026-139C,2026-07-06T04:06:43.484832,15.12517431,.00047002,52.9932,176.4117,20.5529,339.5651,0,U,69591,999,286,.52915518E-4,.632E-5,0
